[{"OBJECT_NAME":"STARLINK-35915","OBJECT_ID":"2025-265F","EPOCH":"2026-03-09T22:58:05.240640","MEAN_MOTION":15.27599277,"ECCENTRICITY":0.00020264,"INCLINATION":43.0036,"RA_OF_ASC_NODE":276.4843,"ARG_OF_PERICENTER":255.0616,"MEAN_ANOMALY":105.0012,"EPHEMERIS_TYPE":0,"CLASSIFICATION_TYPE":"U","NORAD_CAT_ID":66521,"ELEMENT_SET_NO":999,"REV_AT_EPOCH":1715,"BSTAR":0.0010937864,"MEAN_MOTION_DOT":0.00029977,"MEAN_MOTION_DDOT":0},{"OBJECT_NAME":"OBJECT L","OBJECT_ID":"2024-024L","EPOCH":"2026-03-09T22:36:05.522976","MEAN_MOTION":15.29373491,"ECCENTRICITY":0.00073185,"INCLINATION":97.3169,"RA_OF_ASC_NODE":137.7038,"ARG_OF_PERICENTER":167.6369,"MEAN_ANOMALY":192.5052,"EPHEMERIS_TYPE":0,"CLASSIFICATION_TYPE":"U","NORAD_CAT_ID":58927,"ELEMENT_SET_NO":999,"REV_AT_EPOCH":9318,"BSTAR":0.00043092344,"MEAN_MOTION_DOT":0.00012217,"MEAN_MOTION_DDOT":0}]
